[{"OBJECT_NAME":"SAOCOM 1A","OBJECT_ID":"2018-076A","EPOCH":"2026-03-30T03:34:06.737376","MEAN_MOTION":14.82162944,"ECCENTRICITY":0.0001463,"INCLINATION":97.8904,"RA_OF_ASC_NODE":277.0327,"ARG_OF_PERICENTER":85.6565,"MEAN_ANOMALY":274.4815,"EPHEMERIS_TYPE":0,"CLASSIFICATION_TYPE":"U","NORAD_CAT_ID":43641,"ELEMENT_SET_NO":999,"REV_AT_EPOCH":40439,"BSTAR":0.00011414,"MEAN_MOTION_DOT":8.57e-6,"MEAN_MOTION_DDOT":0},{"OBJECT_NAME":"H-2A R/B","OBJECT_ID":"2018-084L","EPOCH":"2026-03-30T04:14:11.110272","MEAN_MOTION":15.42219992,"ECCENTRICITY":0.0023634,"INCLINATION":98.8704,"RA_OF_ASC_NODE":310.9549,"ARG_OF_PERICENTER":313.7074,"MEAN_ANOMALY":46.221,"EPHEMERIS_TYPE":0,"CLASSIFICATION_TYPE":"U","NORAD_CAT_ID":43682,"ELEMENT_SET_NO":999,"REV_AT_EPOCH":40893,"BSTAR":0.00057755,"MEAN_MOTION_DOT":0.00024987,"MEAN_MOTION_DDOT":0},{"OBJECT_NAME":"SAOCOM 1B","OBJECT_ID":"2020-059A","EPOCH":"2026-03-30T04:19:06.109248","MEAN_MOTION":14.8215548,"ECCENTRICITY":0.0001497,"INCLINATION":97.8897,"RA_OF_ASC_NODE":276.161,"ARG_OF_PERICENTER":83.7713,"MEAN_ANOMALY":276.367,"EPHEMERIS_TYPE":0,"CLASSIFICATION_TYPE":"U","NORAD_CAT_ID":46265,"ELEMENT_SET_NO":999,"REV_AT_EPOCH":30178,"BSTAR":-7.1495e-6,"MEAN_MOTION_DOT":-1.09e-6,"MEAN_MOTION_DDOT":0},{"OBJECT_NAME":"CSS (TIANHE)","OBJECT_ID":"2021-035A","EPOCH":"2026-03-28T23:18:08.263008","MEAN_MOTION":15.61596075,"ECCENTRICITY":0.0003972,"INCLINATION":41.4668,"RA_OF_ASC_NODE":90.7542,"ARG_OF_PERICENTER":51.5615,"MEAN_ANOMALY":308.558,"EPHEMERIS_TYPE":0,"CLASSIFICATION_TYPE":"U","NORAD_CAT_ID":48274,"ELEMENT_SET_NO":999,"REV_AT_EPOCH":28062,"BSTAR":0.00017362,"MEAN_MOTION_DOT":0.00015046,"MEAN_MOTION_DDOT":0},{"OBJECT_NAME":"COSMOS 2550","OBJECT_ID":"2021-056A","EPOCH":"2026-03-28T11:49:31.757952","MEAN_MOTION":15.33828274,"ECCENTRICITY":0.000844,"INCLINATION":67.1421,"RA_OF_ASC_NODE":344.0047,"ARG_OF_PERICENTER":269.5686,"MEAN_ANOMALY":90.4502,"EPHEMERIS_TYPE":0,"CLASSIFICATION_TYPE":"U","NORAD_CAT_ID":48865,"ELEMENT_SET_NO":999,"REV_AT_EPOCH":26634,"BSTAR":1.89685e-7,"MEAN_MOTION_DOT":-1.86e-6,"MEAN_MOTION_DDOT":0},{"OBJECT_NAME":"CZ-2C R/B","OBJECT_ID":"2022-058K","EPOCH":"2026-03-28T15:54:43.791840","MEAN_MOTION":15.55620973,"ECCENTRICITY":0.004154,"INCLINATION":50.1874,"RA_OF_ASC_NODE":220.5877,"ARG_OF_PERICENTER":282.163,"MEAN_ANOMALY":77.4689,"EPHEMERIS_TYPE":0,"CLASSIFICATION_TYPE":"U","NORAD_CAT_ID":52794,"ELEMENT_SET_NO":999,"REV_AT_EPOCH":21308,"BSTAR":0.00063634,"MEAN_MOTION_DOT":0.00046065,"MEAN_MOTION_DDOT":0},{"OBJECT_NAME":"CZ-2C R/B","OBJECT_ID":"2022-132E","EPOCH":"2026-03-30T02:49:26.176512","MEAN_MOTION":15.63780019,"ECCENTRICITY":0.0017267,"INCLINATION":97.2957,"RA_OF_ASC_NODE":93.0838,"ARG_OF_PERICENTER":24.2445,"MEAN_ANOMALY":335.9622,"EPHEMERIS_TYPE":0,"CLASSIFICATION_TYPE":"U","NORAD_CAT_ID":54039,"ELEMENT_SET_NO":999,"REV_AT_EPOCH":19356,"BSTAR":0.00055882,"MEAN_MOTION_DOT":0.0005274,"MEAN_MOTION_DDOT":0},{"OBJECT_NAME":"GSLV R/B","OBJECT_ID":"2022-138AN","EPOCH":"2026-03-30T04:15:53.324928","MEAN_MOTION":14.96903287,"ECCENTRICITY":0.0023996,"INCLINATION":87.3859,"RA_OF_ASC_NODE":159.5035,"ARG_OF_PERICENTER":79.2081,"MEAN_ANOMALY":281.185,"EPHEMERIS_TYPE":0,"CLASSIFICATION_TYPE":"U","NORAD_CAT_ID":54149,"ELEMENT_SET_NO":999,"REV_AT_EPOCH":18699,"BSTAR":0.00028227,"MEAN_MOTION_DOT":3.285e-5,"MEAN_MOTION_DDOT":0},{"OBJECT_NAME":"XRISM","OBJECT_ID":"2023-137A","EPOCH":"2026-03-30T04:14:14.853120","MEAN_MOTION":15.11738683,"ECCENTRICITY":0.0007936,"INCLINATION":31.0017,"RA_OF_ASC_NODE":151.129,"ARG_OF_PERICENTER":245.1735,"MEAN_ANOMALY":114.8078,"EPHEMERIS_TYPE":0,"CLASSIFICATION_TYPE":"U","NORAD_CAT_ID":57800,"ELEMENT_SET_NO":999,"REV_AT_EPOCH":14089,"BSTAR":0.00042079,"MEAN_MOTION_DOT":7.456e-5,"MEAN_MOTION_DDOT":0},{"OBJECT_NAME":"ACS3","OBJECT_ID":"2024-077B","EPOCH":"2026-03-30T02:01:16.188096","MEAN_MOTION":13.90562322,"ECCENTRICITY":0.0072876,"INCLINATION":97.1965,"RA_OF_ASC_NODE":25.6117,"ARG_OF_PERICENTER":30.3504,"MEAN_ANOMALY":330.185,"EPHEMERIS_TYPE":0,"CLASSIFICATION_TYPE":"U","NORAD_CAT_ID":59588,"ELEMENT_SET_NO":999,"REV_AT_EPOCH":9703,"BSTAR":0.022827,"MEAN_MOTION_DOT":0.0002911,"MEAN_MOTION_DDOT":0},{"OBJECT_NAME":"SZ-21 MODULE","OBJECT_ID":"2025-246C","EPOCH":"2026-03-30T01:19:56.798400","MEAN_MOTION":15.70142049,"ECCENTRICITY":0.0001949,"INCLINATION":41.4737,"RA_OF_ASC_NODE":77.8431,"ARG_OF_PERICENTER":214.4344,"MEAN_ANOMALY":145.6372,"EPHEMERIS_TYPE":0,"CLASSIFICATION_TYPE":"U","NORAD_CAT_ID":66515,"ELEMENT_SET_NO":999,"REV_AT_EPOCH":2127,"BSTAR":0.00039517,"MEAN_MOTION_DOT":0.00049221,"MEAN_MOTION_DDOT":0}]
