SAOCOM 1A               
1 43641U 18076A   26089.14868909  .00000857  00000+0  11414-3 0  9993
2 43641  97.8904 277.0327 0001463  85.6565 274.4815 14.82162944404396
H-2A R/B                
1 43682U 18084L   26089.17651748  .00024987  00000+0  57755-3 0  9999
2 43682  98.8704 310.9549 0023634 313.7074  46.2210 15.42219992408938
SAOCOM 1B               
1 46265U 20059A   26089.17993182 -.00000109  00000+0 -71495-5 0  9996
2 46265  97.8897 276.1610 0001497  83.7713 276.3670 14.82155480301784
CSS (TIANHE)            
1 48274U 21035A   26087.97092897  .00015046  00000+0  17362-3 0  9997
2 48274  41.4668  90.7542 0003972  51.5615 308.5580 15.61596075280629
COSMOS 2550             
1 48865U 21056A   26087.49272868 -.00000186  00000+0  18968-6 0  9997
2 48865  67.1421 344.0047 0008440 269.5686  90.4502 15.33828274266348
CZ-2C R/B               
1 52794U 22058K   26087.66300685  .00046065  00000+0  63634-3 0  9996
2 52794  50.1874 220.5877 0041540 282.1630  77.4689 15.55620973213089
CZ-2C R/B               
1 54039U 22132E   26089.11766408  .00052740  00000+0  55882-3 0  9997
2 54039  97.2957  93.0838 0017267  24.2445 335.9622 15.63780019193561
GSLV R/B                
1 54149U 22138AN  26089.17770052  .00003285  00000+0  28227-3 0  9994
2 54149  87.3859 159.5035 0023996  79.2081 281.1850 14.96903287186996
XRISM                   
1 57800U 23137A   26089.17656080  .00007456  00000+0  42079-3 0  9990
2 57800  31.0017 151.1290 0007936 245.1735 114.8078 15.11738683140899
ACS3                    
1 59588U 24077B   26089.08421514  .00029110  00000+0  22827-1 0  9999
2 59588  97.1965  25.6117 0072876  30.3504 330.1850 13.90562322 97033
SZ-21 MODULE            
1 66515U 25246C   26089.05551850  .00049221  00000+0  39517-3 0  9991
2 66515  41.4737  77.8431 0001949 214.4344 145.6372 15.70142049 21279
